{"fetched_at":"2026-07-23T17:55:35.855Z","source":"https://celestrak.org/NORAD/elements/gp.php?NAME=ICEYE&FORMAT=JSON","constellation":"iceye","records":[{"OBJECT_NAME":"ICEYE-X40","OBJECT_ID":"2024-149CK","EPOCH":"2026-07-23T04:07:59.766528","CLASSIFICATION_TYPE":"U","MEAN_MOTION":14.98119669,"ECCENTRICITY":0.00034479,"INCLINATION":97.6807,"RA_OF_ASC_NODE":280.0905,"ARG_OF_PERICENTER":340.6815,"MEAN_ANOMALY":19.4277,"EPHEMERIS_TYPE":0,"NORAD_CAT_ID":60549,"ELEMENT_SET_NO":999,"REV_AT_EPOCH":10546,"BSTAR":0.00032329726,"MEAN_MOTION_DOT":0.00003771,"MEAN_MOTION_DDOT":0},{"OBJECT_NAME":"ICEYE-X49","OBJECT_ID":"2024-247H","EPOCH":"2026-07-23T06:36:16.477344","CLASSIFICATION_TYPE":"U","MEAN_MOTION":15.13496291,"ECCENTRICITY":0.00006457,"INCLINATION":44.9969,"RA_OF_ASC_NODE":164.6226,"ARG_OF_PERICENTER":185.0567,"MEAN_ANOMALY":175.0304,"EPHEMERIS_TYPE":0,"NORAD_CAT_ID":62384,"ELEMENT_SET_NO":999,"REV_AT_EPOCH":8764,"BSTAR":0.00021576099,"MEAN_MOTION_DOT":0.00003672,"MEAN_MOTION_DDOT":0},{"OBJECT_NAME":"ICEYE-X47","OBJECT_ID":"2024-247N","EPOCH":"2026-07-23T06:01:11.422560","CLASSIFICATION_TYPE":"U","MEAN_MOTION":15.13512953,"ECCENTRICITY":0.00006268,"INCLINATION":44.9965,"RA_OF_ASC_NODE":164.3423,"ARG_OF_PERICENTER":54.8235,"MEAN_ANOMALY":305.2701,"EPHEMERIS_TYPE":0,"NORAD_CAT_ID":62389,"ELEMENT_SET_NO":999,"REV_AT_EPOCH":8764,"BSTAR":0.00012549042,"MEAN_MOTION_DOT":0.00002029,"MEAN_MOTION_DDOT":0},{"OBJECT_NAME":"ICEYE-X42","OBJECT_ID":"2025-009CT","EPOCH":"2026-07-23T03:47:20.063904","CLASSIFICATION_TYPE":"U","MEAN_MOTION":14.91841274,"ECCENTRICITY":0.00013137,"INCLINATION":97.7387,"RA_OF_ASC_NODE":281.8235,"ARG_OF_PERICENTER":99.772,"MEAN_ANOMALY":260.3647,"EPHEMERIS_TYPE":0,"NORAD_CAT_ID":62698,"ELEMENT_SET_NO":999,"REV_AT_EPOCH":8265,"BSTAR":0.00018090475,"MEAN_MOTION_DOT":0.00001771,"MEAN_MOTION_DDOT":0},{"OBJECT_NAME":"ICEYE-X41","OBJECT_ID":"2025-009CV","EPOCH":"2026-07-23T04:02:10.580928","CLASSIFICATION_TYPE":"U","MEAN_MOTION":14.96949662,"ECCENTRICITY":0.00008076,"INCLINATION":97.7056,"RA_OF_ASC_NODE":283.1729,"ARG_OF_PERICENTER":158.1646,"MEAN_ANOMALY":201.961,"EPHEMERIS_TYPE":0,"NORAD_CAT_ID":62700,"ELEMENT_SET_NO":999,"REV_AT_EPOCH":8279,"BSTAR":0.00032552675,"MEAN_MOTION_DOT":0.00003684,"MEAN_MOTION_DDOT":0},{"OBJECT_NAME":"ICEYE-X45","OBJECT_ID":"2025-009DA","EPOCH":"2026-07-23T04:45:41.810112","CLASSIFICATION_TYPE":"U","MEAN_MOTION":15.00856748,"ECCENTRICITY":0.00007452,"INCLINATION":97.8432,"RA_OF_ASC_NODE":291.1893,"ARG_OF_PERICENTER":48.5467,"MEAN_ANOMALY":311.582,"EPHEMERIS_TYPE":0,"NORAD_CAT_ID":62705,"ELEMENT_SET_NO":999,"REV_AT_EPOCH":8308,"BSTAR":0.00041662203,"MEAN_MOTION_DOT":0.00005238,"MEAN_MOTION_DDOT":0},{"OBJECT_NAME":"ICEYE-X44","OBJECT_ID":"2025-009DC","EPOCH":"2026-07-23T04:49:53.311008","CLASSIFICATION_TYPE":"U","MEAN_MOTION":14.96195449,"ECCENTRICITY":0.00018901,"INCLINATION":97.7048,"RA_OF_ASC_NODE":282.7598,"ARG_OF_PERICENTER":55.9937,"MEAN_ANOMALY":304.1463,"EPHEMERIS_TYPE":0,"NORAD_CAT_ID":62707,"ELEMENT_SET_NO":999,"REV_AT_EPOCH":10532,"BSTAR":0.00017542835,"MEAN_MOTION_DOT":0.0000192,"MEAN_MOTION_DDOT":0},{"OBJECT_NAME":"ICEYE-X48","OBJECT_ID":"2025-052AV","EPOCH":"2026-07-23T04:36:21.297024","CLASSIFICATION_TYPE":"U","MEAN_MOTION":14.98164646,"ECCENTRICITY":0.00043469,"INCLINATION":97.6844,"RA_OF_ASC_NODE":95.8254,"ARG_OF_PERICENTER":84.693,"MEAN_ANOMALY":275.4788,"EPHEMERIS_TYPE":0,"NORAD_CAT_ID":63253,"ELEMENT_SET_NO":999,"REV_AT_EPOCH":7406,"BSTAR":0.00023809928,"MEAN_MOTION_DOT":0.00002765,"MEAN_MOTION_DDOT":0},{"OBJECT_NAME":"ICEYE-X50","OBJECT_ID":"2025-052AX","EPOCH":"2026-07-23T07:01:19.393248","CLASSIFICATION_TYPE":"U","MEAN_MOTION":14.95380359,"ECCENTRICITY":0.00034118,"INCLINATION":97.6842,"RA_OF_ASC_NODE":95.488,"ARG_OF_PERICENTER":88.0914,"MEAN_ANOMALY":272.0698,"EPHEMERIS_TYPE":0,"NORAD_CAT_ID":63255,"ELEMENT_SET_NO":999,"REV_AT_EPOCH":7404,"BSTAR":0.00012919197,"MEAN_MOTION_DOT":0.0000137,"MEAN_MOTION_DDOT":0},{"OBJECT_NAME":"ICEYE-X51","OBJECT_ID":"2025-052AZ","EPOCH":"2026-07-22T19:01:04.725120","CLASSIFICATION_TYPE":"U","MEAN_MOTION":15.00900798,"ECCENTRICITY":0.00021141,"INCLINATION":97.7619,"RA_OF_ASC_NODE":98.8279,"ARG_OF_PERICENTER":62.8734,"MEAN_ANOMALY":297.2705,"EPHEMERIS_TYPE":0,"NORAD_CAT_ID":63257,"ELEMENT_SET_NO":999,"REV_AT_EPOCH":7414,"BSTAR":0.00032695867,"MEAN_MOTION_DOT":0.00004103,"MEAN_MOTION_DDOT":0},{"OBJECT_NAME":"ICEYE-X46","OBJECT_ID":"2025-052BA","EPOCH":"2026-07-23T03:43:52.233888","CLASSIFICATION_TYPE":"U","MEAN_MOTION":14.95382902,"ECCENTRICITY":0.00015083,"INCLINATION":97.6845,"RA_OF_ASC_NODE":95.3529,"ARG_OF_PERICENTER":83.3256,"MEAN_ANOMALY":276.8137,"EPHEMERIS_TYPE":0,"NORAD_CAT_ID":63258,"ELEMENT_SET_NO":999,"REV_AT_EPOCH":7402,"BSTAR":0.00011740311,"MEAN_MOTION_DOT":0.0000124,"MEAN_MOTION_DDOT":0},{"OBJECT_NAME":"ICEYE-X54","OBJECT_ID":"2025-135AU","EPOCH":"2026-07-23T12:14:32.151840","CLASSIFICATION_TYPE":"U","MEAN_MOTION":14.94699626,"ECCENTRICITY":0.0002451,"INCLINATION":97.774,"RA_OF_ASC_NODE":318.588,"ARG_OF_PERICENTER":168.3391,"MEAN_ANOMALY":191.7886,"EPHEMERIS_TYPE":0,"NORAD_CAT_ID":64570,"ELEMENT_SET_NO":999,"REV_AT_EPOCH":5932,"BSTAR":0.00031952,"MEAN_MOTION_DOT":0.0000341,"MEAN_MOTION_DDOT":0},{"OBJECT_NAME":"ICEYE-X52","OBJECT_ID":"2025-135AW","EPOCH":"2026-07-23T07:30:42.817248","CLASSIFICATION_TYPE":"U","MEAN_MOTION":14.93672644,"ECCENTRICITY":0.000192,"INCLINATION":97.7773,"RA_OF_ASC_NODE":318.1719,"ARG_OF_PERICENTER":165.6265,"MEAN_ANOMALY":194.501,"EPHEMERIS_TYPE":0,"NORAD_CAT_ID":64572,"ELEMENT_SET_NO":999,"REV_AT_EPOCH":5927,"BSTAR":0.0001615454,"MEAN_MOTION_DOT":0.00001651,"MEAN_MOTION_DDOT":0},{"OBJECT_NAME":"ICEYE-X56","OBJECT_ID":"2025-135AY","EPOCH":"2026-07-23T06:59:08.924064","CLASSIFICATION_TYPE":"U","MEAN_MOTION":14.9580048,"ECCENTRICITY":0.0001888,"INCLINATION":97.7771,"RA_OF_ASC_NODE":318.9756,"ARG_OF_PERICENTER":167.3976,"MEAN_ANOMALY":192.7292,"EPHEMERIS_TYPE":0,"NORAD_CAT_ID":64574,"ELEMENT_SET_NO":999,"REV_AT_EPOCH":5932,"BSTAR":0.00025384798,"MEAN_MOTION_DOT":0.00002775,"MEAN_MOTION_DDOT":0},{"OBJECT_NAME":"ICEYE-X57","OBJECT_ID":"2025-135BC","EPOCH":"2026-07-23T06:26:25.539360","CLASSIFICATION_TYPE":"U","MEAN_MOTION":15.00875725,"ECCENTRICITY":0.00021185,"INCLINATION":97.8041,"RA_OF_ASC_NODE":320.8549,"ARG_OF_PERICENTER":56.2973,"MEAN_ANOMALY":303.8452,"EPHEMERIS_TYPE":0,"NORAD_CAT_ID":64578,"ELEMENT_SET_NO":999,"REV_AT_EPOCH":5943,"BSTAR":0.00017085528,"MEAN_MOTION_DOT":0.00002112,"MEAN_MOTION_DDOT":0},{"OBJECT_NAME":"ICEYE-X55","OBJECT_ID":"2025-135BF","EPOCH":"2026-07-23T07:13:01.216992","CLASSIFICATION_TYPE":"U","MEAN_MOTION":14.95394655,"ECCENTRICITY":0.00025513,"INCLINATION":97.7764,"RA_OF_ASC_NODE":318.8056,"ARG_OF_PERICENTER":204.4817,"MEAN_ANOMALY":155.6283,"EPHEMERIS_TYPE":0,"NORAD_CAT_ID":64581,"ELEMENT_SET_NO":999,"REV_AT_EPOCH":5931,"BSTAR":0.00025988583,"MEAN_MOTION_DOT":0.00002812,"MEAN_MOTION_DDOT":0}]}
