{"epoch":1784817359,"count":18317,"objects":[{"id":"60549","name":"ICEYE-X40","type":"PAYLOAD","l1":"1 60549U 24149CK  26204.17221952  .00003771  00000-0  32330-3 0  9999","l2":"2 60549  97.6807 280.0905 0003448 340.6815  19.4277 14.98119669105463"},{"id":"62384","name":"ICEYE-X49","type":"PAYLOAD","l1":"1 62384U 24247H   26204.27519071  .00003672  00000-0  21576-3 0  9990","l2":"2 62384  44.9969 164.6226 0000646 185.0567 175.0304 15.13496291 87647"},{"id":"62389","name":"ICEYE-X47","type":"PAYLOAD","l1":"1 62389U 24247N   26204.25082665  .00002029  00000-0  12549-3 0  9992","l2":"2 62389  44.9965 164.3423 0000627  54.8235 305.2701 15.13512953 87640"},{"id":"62698","name":"ICEYE-X42","type":"PAYLOAD","l1":"1 62698U 25009CT  26204.15787111  .00001771  00000-0  18090-3 0  9999","l2":"2 62698  97.7387 281.8235 0001314  99.7720 260.3647 14.91841274 82656"},{"id":"62700","name":"ICEYE-X41","type":"PAYLOAD","l1":"1 62700U 25009CV  26204.16817802  .00003684  00000-0  32553-3 0  9990","l2":"2 62700  97.7056 283.1729 0000808 158.1646 201.9610 14.96949662 82791"},{"id":"62705","name":"ICEYE-X45","type":"PAYLOAD","l1":"1 62705U 25009DA  26204.19840058  .00005238  00000-0  41662-3 0  9995","l2":"2 62705  97.8432 291.1893 0000745  48.5467 311.5820 15.00856748 83081"},{"id":"62707","name":"ICEYE-X44","type":"PAYLOAD","l1":"1 62707U 25009DC  26204.20131147  .00001920  00000-0  17543-3 0  9996","l2":"2 62707  97.7048 282.7598 0001890  55.9937 304.1463 14.96195449105320"},{"id":"63253","name":"ICEYE-X48","type":"PAYLOAD","l1":"1 63253U 25052AV  26204.19191316  .00002765  00000-0  23810-3 0  9995","l2":"2 63253  97.6844  95.8254 0004347  84.6930 275.4788 14.98164646 74067"},{"id":"63255","name":"ICEYE-X50","type":"PAYLOAD","l1":"1 63255U 25052AX  26204.29258557  .00001370  00000-0  12919-3 0  9998","l2":"2 63255  97.6842  95.4880 0003412  88.0914 272.0698 14.95380359 74049"},{"id":"63257","name":"ICEYE-X51","type":"PAYLOAD","l1":"1 63257U 25052AZ  26203.79241580  .00004103  00000-0  32696-3 0  9993","l2":"2 63257  97.7619  98.8279 0002114  62.8734 297.2705 15.00900798 74142"},{"id":"63258","name":"ICEYE-X46","type":"PAYLOAD","l1":"1 63258U 25052BA  26204.15546567  .00001240  00000-0  11740-3 0  9994","l2":"2 63258  97.6845  95.3529 0001508  83.3256 276.8137 14.95382902 74029"},{"id":"64570","name":"ICEYE-X54","type":"PAYLOAD","l1":"1 64570U 25135AU  26204.51009435  .00003410  00000-0  31952-3 0  9990","l2":"2 64570  97.7740 318.5880 0002451 168.3391 191.7886 14.94699626 59329"},{"id":"64572","name":"ICEYE-X52","type":"PAYLOAD","l1":"1 64572U 25135AW  26204.31299557  .00001651  00000-0  16155-3 0  9999","l2":"2 64572  97.7773 318.1719 0001920 165.6265 194.5010 14.93672644 59278"},{"id":"64574","name":"ICEYE-X56","type":"PAYLOAD","l1":"1 64574U 25135AY  26204.29107551  .00002775  00000-0  25385-3 0  9993","l2":"2 64574  97.7771 318.9756 0001888 167.3976 192.7292 14.95800480 59329"},{"id":"64578","name":"ICEYE-X57","type":"PAYLOAD","l1":"1 64578U 25135BC  26204.26835115  .00002112  00000-0  17086-3 0  9992","l2":"2 64578  97.8041 320.8549 0002119  56.2973 303.8452 15.00875725 59433"},{"id":"64581","name":"ICEYE-X55","type":"PAYLOAD","l1":"1 64581U 25135BF  26204.30070853  .00002812  00000-0  25989-3 0  9999","l2":"2 64581  97.7764 318.8056 0002551 204.4817 155.6283 14.95394655 59315"}]}